IRIDIUM 116             
1 43072U 17083C   25083.90572711  .00000863  00000+0  30116-3 0  9995
2 43072  86.4004 149.8334 0001972 101.1747 258.9670 14.34220634379771
IRIDIUM 130             
1 43073U 17083D   25083.94378334  .00000559  00000+0  19269-3 0  9993
2 43073  86.4012 150.0487 0001876  94.2810 265.8600 14.34220380379723
IRIDIUM 151             
1 43074U 17083E   25083.91842471  .00000865  00000+0  30179-3 0  9992
2 43074  86.4006 149.8757 0002109  99.8107 260.3327 14.34218875379747
IRIDIUM 134             
1 43075U 17083F   25083.88669890  .00000377  00000+0  12740-3 0  9993
2 43075  86.4004 149.8907 0001972  91.5857 268.5565 14.34214744379702
IRIDIUM 137             
1 43076U 17083G   25083.89938666  .00000469  00000+0  16053-3 0  9998
2 43076  86.4012 149.9691 0001993 112.3619 247.7788 14.34218664379772
IRIDIUM 141             
1 43077U 17083H   25083.89304490  .00000416  00000+0  14152-3 0  9991
2 43077  86.4005 149.8282 0002469  91.1709 268.9770 14.34219386379771
IRIDIUM 153             
1 43078U 17083J   25083.56614958  .00000542  00000+0  18638-3 0  9992
2 43078  86.3937 118.4615 0002719  86.5363 273.6144 14.34220282380833
IRIDIUM 131             
1 43079U 17083K   25083.88035954  .00000412  00000+0  14010-3 0  9997
2 43079  86.4008 149.9892 0002505  98.4320 261.7160 14.34220009379705
